OBJECT_NAME,OBJECT_ID,EPOCH,MEAN_MOTION,ECCENTRICITY,INCLINATION,RA_OF_ASC_NODE,ARG_OF_PERICENTER,MEAN_ANOMALY,EPHEMERIS_TYPE,CLASSIFICATION_TYPE,NORAD_CAT_ID,ELEMENT_SET_NO,REV_AT_EPOCH,BSTAR,MEAN_MOTION_DOT,MEAN_MOTION_DDOT
PERSEUS-M1,2014-033AF,2026-05-19T06:24:34.114464,14.95525556,.00126778,97.9635,82.9294,39.9040,320.3109,0,U,40039,999,64631,.11929187E-3,.1263E-4,0
POLYITAN-1,2014-033AJ,2026-05-18T19:17:58.762176,15.32154281,.00056968,98.0962,162.3101,240.0236,120.0439,0,U,40042,999,64909,.38316913E-3,.11817E-3,0
TIGRISAT,2014-033AK,2026-05-18T09:39:30.507552,14.85021879,.00497258,97.7798,289.1062,170.8027,189.4111,0,U,40043,999,64120,.1639485E-3,.1375E-4,0
AEROCUBE 6A,2014-033AM,2026-05-18T21:34:03.118080,14.97756867,.0040146,97.7224,306.1714,112.7205,247.8268,0,U,40045,999,64223,.30208E-3,.3543E-4,0
AEROCUBE 6B,2014-033AN,2026-05-19T04:42:36.593568,14.99179016,.0038576,97.7178,306.1952,105.0547,255.4949,0,U,40046,999,64241,.31360131E-3,.3816E-4,0
CANX-4,2014-034C,2026-05-19T04:07:51.770208,14.81204639,.00141029,98.3158,13.4156,103.0014,257.2773,0,U,40055,999,64023,.76736481E-4,.541E-5,0
CANX-5,2014-034D,2026-05-19T02:28:48.790272,14.81221869,.00140897,98.3161,13.3861,103.3863,256.8920,0,U,40056,999,63103,.82200689E-4,.584E-5,0
UKUBE-1,2014-037F,2026-05-19T06:33:08.120160,15.13037046,.00004313,98.4242,139.5204,133.5446,226.5818,0,U,40074,999,64418,.30083909E-3,.5239E-4,0
BRITE-PL2 (HEWELIUSZ),2014-049B,2026-05-19T05:58:46.909920,14.94470930,.00136422,97.9066,251.0338,200.1054,159.9631,0,U,40119,999,63712,.13506848E-3,.14E-4,0
AEROCUBE 5C,2015-058B,2026-05-19T04:51:23.063328,14.91274358,.01299333,64.7681,352.7496,74.6674,286.8754,0,U,40965,999,36133,.17571604E-3,.1881E-4,0
AEROCUBE 7,2015-058C,2026-05-19T06:44:30.055488,14.95482867,.01197084,64.7626,335.3409,73.3069,288.1145,0,U,40966,999,36163,.22837441E-3,.2744E-4,0
FOX-1A (AO-85),2015-058D,2026-05-18T15:16:53.001984,14.90780838,.01292011,64.7765,10.8054,68.1875,293.2924,0,U,40967,999,10916,.19406215E-3,.2064E-4,0
SINOD-D 1,2015-058E,2026-05-19T04:41:25.971072,14.95660609,.01177461,64.7760,349.6876,64.7204,296.6056,0,U,40968,999,11232,.22632714E-3,.2718E-4,0
SNAP-3 ALICE,2015-058G,2026-05-19T06:24:12.000384,15.54077263,.00334097,64.7514,203.4059,26.7722,333.5137,0,U,40970,999,11238,.77615471E-3,.51969E-3,0
LMRST-SAT,2015-058H,2026-05-19T01:18:08.560800,14.90409081,.01309792,64.7770,5.7913,70.0469,291.4696,0,U,40971,999,10921,.20778142E-3,.221E-4,0
SNAP-3 EDDIE,2015-058J,2026-05-19T06:41:43.043424,15.55239309,.00337325,64.7431,194.2966,30.4938,329.8157,0,U,40972,999,11452,.73970084E-3,.51717E-3,0
PROPCUBE 3,2015-058K,2026-05-19T07:04:41.249568,14.94043945,.01231028,64.7689,342.7924,71.4377,290.0063,0,U,40973,999,11048,.2038424E-3,.2351E-4,0
BISONSAT,2015-058L,2026-05-19T01:42:22.454208,15.15557937,.00786163,64.7603,267.7273,59.5998,301.2866,0,U,40974,999,11120,.37995692E-3,.7625E-4,0
SNAP-3 JIMI,2015-058M,2026-05-18T21:30:08.632800,15.01978122,.0105068,64.7649,312.4251,67.5350,293.6852,0,U,40975,999,10982,.28176E-3,.3981E-4,0
PROPCUBE 1 (FLORA),2015-058N,2026-05-18T23:34:39.088704,14.89040113,.01297713,64.7760,25.7378,72.3574,289.1659,0,U,40976,999,11191,.20239795E-3,.2061E-4,0
SINOD-D 3,2015-058P,2026-05-18T22:04:46.621920,14.93773336,.0118241,64.7735,7.1960,69.8344,291.5442,0,U,40977,999,11038,.25181E-3,.2892E-4,0
HORYU-4,2016-012D,2026-05-19T03:00:44.795808,15.79713853,.00045679,30.9885,289.5778,77.6854,282.4315,0,U,41340,999,56619,.76965014E-3,.150174E-2,0
RAVAN,2016-067B,2026-05-19T05:53:57.268608,15.51802776,.00071935,97.9929,25.5391,103.2439,256.9614,0,U,41849,999,52320,.47666713E-3,.28457E-3,0
CELTEE 1,2016-067C,2026-05-18T20:05:46.383360,15.19364275,.00015134,98.0706,3.4044,56.9062,303.2316,0,U,41850,999,52142,.17675541E-3,.366E-4,0
OPTICUBE 04,2016-067D,2026-05-19T02:42:31.746816,15.09523195,.00148615,98.0726,349.8781,211.7232,148.3102,0,U,41851,999,52078,.90095075E-4,.1376E-4,0
AEROCUBE 8D,2016-067E,2026-05-19T03:18:39.009600,15.23949269,.00023319,98.0715,7.1041,213.3170,146.7919,0,U,41852,999,52164,.18092997E-3,.4294E-4,0
AEROCUBE 8C,2016-067F,2026-05-19T04:01:19.266240,15.24188834,.00060565,98.0585,4.4015,147.5137,212.6472,0,U,41853,999,52164,.19475997E-3,.4664E-4,0
CORVUS BC2,2017-042X,2026-05-19T05:30:17.619840,15.06088658,.00124164,97.4040,301.7147,204.1939,155.8707,0,U,42846,999,48270,.98639521E-4,.1384E-4,0
CORVUS BC1,2017-042Y,2026-05-19T07:02:55.951296,15.06259337,.00119382,97.4070,302.5715,179.6675,180.4563,0,U,42847,999,48274,.94232444E-4,.1325E-4,0
MAKERSAT 0,2017-073D,2026-05-18T21:48:14.558976,15.30778554,.0110587,97.4663,21.2218,18.3053,342.2118,0,U,43016,999,46198,.46599E-3,.16695E-3,0
