PERSEUS-M1              
1 40039U 14033AF  26139.26706151  .00001263  00000+0  11929-3 0  9992
2 40039  97.9635  82.9294 0012677  39.9040 320.3109 14.95525556646314
POLYITAN-1              
1 40042U 14033AJ  26138.80415234  .00011817  00000+0  38317-3 0  9990
2 40042  98.0962 162.3101 0005696 240.0236 120.0439 15.32154281649092
TIGRISAT                
1 40043U 14033AK  26138.40243643  .00001375  00000+0  16395-3 0  9990
2 40043  97.7798 289.1062 0049725 170.8027 189.4111 14.85021879641203
AEROCUBE 6A             
1 40045U 14033AM  26138.89864720  .00003543  00000+0  30208-3 0  9998
2 40045  97.7224 306.1714 0040146 112.7205 247.8268 14.97756867642235
AEROCUBE 6B             
1 40046U 14033AN  26139.19625687  .00003816  00000+0  31360-3 0  9993
2 40046  97.7178 306.1952 0038576 105.0547 255.4949 14.99179016642414
CANX-4                  
1 40055U 14034C   26139.17212697  .00000541  00000+0  76736-4 0  9994
2 40055  98.3158  13.4156 0014102 103.0014 257.2773 14.81204639640233
CANX-5                  
1 40056U 14034D   26139.10334248  .00000584  00000+0  82201-4 0  9996
2 40056  98.3161  13.3861 0014089 103.3863 256.8920 14.81221869631030
UKUBE-1                 
1 40074U 14037F   26139.27301065  .00005239  00000+0  30084-3 0  9991
2 40074  98.4242 139.5204 0000431 133.5446 226.5818 15.13037046644189
BRITE-PL2 (HEWELIUSZ)   
1 40119U 14049B   26139.24915405  .00001400  00000+0  13507-3 0  9997
2 40119  97.9066 251.0338 0013642 200.1054 159.9631 14.94470930637128
AEROCUBE 5C             
1 40965U 15058B   26139.20235027  .00001881  00000+0  17572-3 0  9997
2 40965  64.7681 352.7496 0129933  74.6674 286.8754 14.91274358361335
AEROCUBE 7              
1 40966U 15058C   26139.28090342  .00002744  00000+0  22837-3 0  9994
2 40966  64.7626 335.3409 0119708  73.3069 288.1145 14.95482867361631
FOX-1A (AO-85)          
1 40967U 15058D   26138.63672456  .00002064  00000+0  19406-3 0  9998
2 40967  64.7765  10.8054 0129201  68.1875 293.2924 14.90780838109167
SINOD-D 1               
1 40968U 15058E   26139.19543948  .00002718  00000+0  22633-3 0  9996
2 40968  64.7760 349.6876 0117746  64.7204 296.6056 14.95660609112320
SNAP-3 ALICE            
1 40970U 15058G   26139.26680556  .00051969  00000+0  77615-3 0  9996
2 40970  64.7514 203.4059 0033409  26.7722 333.5137 15.54077263112387
LMRST-SAT               
1 40971U 15058H   26139.05426575  .00002210  00000+0  20778-3 0  9996
2 40971  64.7770   5.7913 0130979  70.0469 291.4696 14.90409081109210
SNAP-3 EDDIE            
1 40972U 15058J   26139.27897041  .00051717  00000+0  73970-3 0  9999
2 40972  64.7431 194.2966 0033732  30.4938 329.8157 15.55239309114521
PROPCUBE 3              
1 40973U 15058K   26139.29492187  .00002351  00000+0  20384-3 0  9995
2 40973  64.7689 342.7924 0123102  71.4377 290.0063 14.94043945110481
BISONSAT                
1 40974U 15058L   26139.07109322  .00007625  00000+0  37996-3 0  9994
2 40974  64.7603 267.7273 0078616  59.5998 301.2866 15.15557937111208
SNAP-3 JIMI             
1 40975U 15058M   26138.89593325  .00003981  00000+0  28176-3 0  9995
2 40975  64.7649 312.4251 0105068  67.5350 293.6852 15.01978122109828
PROPCUBE 1 (FLORA)      
1 40976U 15058N   26138.98239686  .00002061  00000+0  20240-3 0  9995
2 40976  64.7760  25.7378 0129771  72.3574 289.1659 14.89040113111919
SINOD-D 3               
1 40977U 15058P   26138.91998405  .00002892  00000+0  25181-3 0  9991
2 40977  64.7735   7.1960 0118241  69.8344 291.5442 14.93773336110381
HORYU-4                 
1 41340U 16012D   26139.12551847  .00150174  00000+0  76965-3 0  9999
2 41340  30.9885 289.5778 0004567  77.6854 282.4315 15.79713853566193
RAVAN                   
1 41849U 16067B   26139.24580172  .00028457  00000+0  47667-3 0  9994
2 41849  97.9929  25.5391 0007193 103.2439 256.9614 15.51802776523207
CELTEE 1                
1 41850U 16067C   26138.83734240  .00003660  00000+0  17676-3 0  9993
2 41850  98.0706   3.4044 0001513  56.9062 303.2316 15.19364275521428
OPTICUBE 04             
1 41851U 16067D   26139.11286744  .00001376  00000+0  90095-4 0  9996
2 41851  98.0726 349.8781 0014861 211.7232 148.3102 15.09523195520782
AEROCUBE 8D             
1 41852U 16067E   26139.13795150  .00004294  00000+0  18093-3 0  9994
2 41852  98.0715   7.1041 0002331 213.3170 146.7919 15.23949269521646
AEROCUBE 8C             
1 41853U 16067F   26139.16758410  .00004664  00000+0  19476-3 0  9993
2 41853  98.0585   4.4015 0006056 147.5137 212.6472 15.24188834521643
CORVUS BC2              
1 42846U 17042X   26139.22937060  .00001384  00000+0  98640-4 0  9994
2 42846  97.4040 301.7147 0012416 204.1939 155.8707 15.06088658482706
CORVUS BC1              
1 42847U 17042Y   26139.29370314  .00001325  00000+0  94232-4 0  9993
2 42847  97.4070 302.5715 0011938 179.6675 180.4563 15.06259337482743
MAKERSAT 0              
1 43016U 17073D   26138.90850184  .00016695  00000+0  46599-3 0  9999
2 43016  97.4663  21.2218 0110587  18.3053 342.2118 15.30778554461983
